{"type": "FeatureCollection", "features": [ {"type": "Feature", "properties": {"norad_id": 35284, "name": "COSMOS 2251 DEB", "group": "cosmos-2251-debris", "lat": -24.461578086627625, "lon": -93.06188284785397, "alt_km": 757.9874955508176, "timestamp": "2025-12-07T07:31:36.693970+00:00", "meta": {"OBJECT_NAME": "COSMOS 2251 DEB", "OBJECT_ID": "1993-036AJN", "EPOCH": "2025-12-06T14:07:12.355680", "MEAN_MOTION": 14.38306996, "ECCENTRICITY": 0.00165553, "INCLINATION": 74.0489, "RA_OF_ASC_NODE": 275.7489, "ARG_OF_PERICENTER": 353.4486, "MEAN_ANOMALY": 187.2786, "EPHEMERIS_TYPE": 0, "CLASSIFICATION_TYPE": "U", "NORAD_CAT_ID": 35284, "ELEMENT_SET_NO": 999, "REV_AT_EPOCH": 65437, "BSTAR": 0.00034127282, "MEAN_MOTION_DOT": 1.014e-05, "MEAN_MOTION_DDOT": 0}, "tle": {"line1": "1 35284U 93036AJN 25340.58833745  .00001014  00000+0  34127-3 0  9995", "line2": "2 35284  74.0489 275.7489 0016555 353.4486 187.2786 14.38306996654376"}}, "geometry": {"type": "Point", "coordinates": [-93.06188284785397, -24.461578086627625]}}, {"type": "Feature", "properties": {"norad_id": 35287, "name": "COSMOS 2251 DEB", "group": "cosmos-2251-debris", "lat": -8.011427242513445, "lon": 108.41645552752601, "alt_km": 786.0010878135372, "timestamp": "2025-12-07T07:31:36.693980+00:00", "meta": {"OBJECT_NAME": "COSMOS 2251 DEB", "OBJECT_ID": "1993-036AJR", "EPOCH": "2025-12-06T20:46:38.621856", "MEAN_MOTION": 14.36368234, "ECCENTRICITY": 0.00173089, "INCLINATION": 74.0302, "RA_OF_ASC_NODE": 286.9293, "ARG_OF_PERICENTER": 25.2797, "MEAN_ANOMALY": 7.7875, "EPHEMERIS_TYPE": 0, "CLASSIFICATION_TYPE": "U", "NORAD_CAT_ID": 35287, "ELEMENT_SET_NO": 999, "REV_AT_EPOCH": 86808, "BSTAR": 0.00028016329, "MEAN_MOTION_DOT": 7.95e-06, "MEAN_MOTION_DDOT": 0}, "tle": {"line1": "1 35287U 93036AJR 25340.86572479  .00000795  00000+0  28016-3 0  9998", "line2": "2 35287  74.0302 286.9293 0017308  25.2797   7.7875 14.36368234868087"}}, "geometry": {"type": "Point", "coordinates": [108.41645552752601, -8.011427242513445]}}, {"type": "Feature", "properties": {"norad_id": 35288, "name": "COSMOS 2251 DEB", "group": "cosmos-2251-debris", "lat": 45.93132181039674, "lon": -171.62527857179128, "alt_km": 688.7375269565873, "timestamp": "2025-12-07T07:31:36.693990+00:00", "meta": {"OBJECT_NAME": "COSMOS 2251 DEB", "OBJECT_ID": "1993-036AJS", "EPOCH": "2025-12-05T20:30:59.855616", "MEAN_MOTION": 14.65344236, "ECCENTRICITY": 0.00396154, "INCLINATION": 73.9509, "RA_OF_ASC_NODE": 28.4958, "ARG_OF_PERICENTER": 262.8912, "MEAN_ANOMALY": 96.775, "EPHEMERIS_TYPE": 0, "CLASSIFICATION_TYPE": "U", "NORAD_CAT_ID": 35288, "ELEMENT_SET_NO": 999, "REV_AT_EPOCH": 87777, "BSTAR": 0.0019659658, "MEAN_MOTION_DOT": 0.00010724, "MEAN_MOTION_DDOT": 0}, "tle": {"line1": "1 35288U 93036AJS 25339.85485944  .00010724  00000+0  19660-2 0  9993", "line2": "2 35288  73.9509  28.4958 0039615 262.8912  96.7750 14.65344236877779"}}, "geometry": {"type": "Point", "coordinates": [-171.62527857179128, 45.93132181039674]}}, {"type": "Feature", "properties": {"norad_id": 35290, "name": "COSMOS 2251 DEB", "group": "cosmos-2251-debris", "lat": 55.175394793554226, "lon": -134.20303605477022, "alt_km": 623.0061731609912, "timestamp": "2025-12-07T07:31:36.694000+00:00", "meta": {"OBJECT_NAME": "COSMOS 2251 DEB", "OBJECT_ID": "1993-036AJU", "EPOCH": "2025-12-06T16:22:51.987360", "MEAN_MOTION": 14.8010207, "ECCENTRICITY": 0.00029414, "INCLINATION": 74.0059, "RA_OF_ASC_NODE": 71.3921, "ARG_OF_PERICENTER": 204.4724, "MEAN_ANOMALY": 155.6313, "EPHEMERIS_TYPE": 0, "CLASSIFICATION_TYPE": "U", "NORAD_CAT_ID": 35290, "ELEMENT_SET_NO": 999, "REV_AT_EPOCH": 87868, "BSTAR": 0.0036735181, "MEAN_MOTION_DOT": 0.00027947, "MEAN_MOTION_DDOT": 0}, "tle": {"line1": "1 35290U 93036AJU 25340.68254615  .00027947  00000+0  36735-2 0  9995", "line2": "2 35290  74.0059  71.3921 0002941 204.4724 155.6313 14.80102070878682"}}, "geometry": {"type": "Point", "coordinates": [-134.20303605477022, 55.175394793554226]}}, {"type": "Feature", "properties": {"norad_id": 35432, "name": "COSMOS 2251 DEB", "group": "cosmos-2251-debris", "lat": -68.90309042487718, "lon": -105.0626376046924, "alt_km": 508.93974028829325, "timestamp": "2025-12-07T07:31:36.694010+00:00", "meta": {"OBJECT_NAME": "COSMOS 2251 DEB", "OBJECT_ID": "1993-036AKA", "EPOCH": "2025-12-06T13:02:26.977920", "MEAN_MOTION": 15.20957014, "ECCENTRICITY": 0.00121909, "INCLINATION": 74.0212, "RA_OF_ASC_NODE": 28.5919, "ARG_OF_PERICENTER": 348.2705, "MEAN_ANOMALY": 11.8207, "EPHEMERIS_TYPE": 0, "CLASSIFICATION_TYPE": "U", "NORAD_CAT_ID": 35432, "ELEMENT_SET_NO": 999, "REV_AT_EPOCH": 87409, "BSTAR": 0.0090355975, "MEAN_MOTION_DOT": 0.00206244, "MEAN_MOTION_DDOT": 0}, "tle": {"line1": "1 35432U 93036AKA 25340.54336780  .00206244  00000+0  90356-2 0  9990", "line2": "2 35432  74.0212  28.5919 0012190 348.2705  11.8207 15.20957014874092"}}, "geometry": {"type": "Point", "coordinates": [-105.0626376046924, -68.90309042487718]}}, {"type": "Feature", "properties": {"norad_id": 35433, "name": "COSMOS 2251 DEB", "group": "cosmos-2251-debris", "lat": -21.505029964233827, "lon": -18.087894510011516, "alt_km": 773.9195950951535, "timestamp": "2025-12-07T07:31:36.694020+00:00", "meta": {"OBJECT_NAME": "COSMOS 2251 DEB", "OBJECT_ID": "1993-036AKB", "EPOCH": "2025-12-05T19:38:16.327392", "MEAN_MOTION": 14.34730306, "ECCENTRICITY": 0.00254596, "INCLINATION": 74.0335, "RA_OF_ASC_NODE": 351.128, "ARG_OF_PERICENTER": 48.4343, "MEAN_ANOMALY": 128.9694, "EPHEMERIS_TYPE": 0, "CLASSIFICATION_TYPE": "U", "NORAD_CAT_ID": 35433, "ELEMENT_SET_NO": 999, "REV_AT_EPOCH": 86481, "BSTAR": 0.00044039966, "MEAN_MOTION_DOT": 1.226e-05, "MEAN_MOTION_DDOT": 0}, "tle": {"line1": "1 35433U 93036AKB 25339.81824453  .00001226  00000+0  44040-3 0  9991", "line2": "2 35433  74.0335 351.1280 0025459  48.4343 128.9694 14.34730306864810"}}, "geometry": {"type": "Point", "coordinates": [-18.087894510011516, -21.505029964233827]}}, {"type": "Feature", "properties": {"norad_id": 35434, "name": "COSMOS 2251 DEB", "group": "cosmos-2251-debris", "lat": 65.0242545491343, "lon": -98.67628999036856, "alt_km": 844.0251585879614, "timestamp": "2025-12-07T07:31:36.694030+00:00", "meta": {"OBJECT_NAME": "COSMOS 2251 DEB", "OBJECT_ID": "1993-036AKC", "EPOCH": "2025-12-06T22:46:33.094560", "MEAN_MOTION": 14.25661537, "ECCENTRICITY": 0.00875949, "INCLINATION": 74.0405, "RA_OF_ASC_NODE": 224.0762, "ARG_OF_PERICENTER": 296.0242, "MEAN_ANOMALY": 63.1904, "EPHEMERIS_TYPE": 0, "CLASSIFICATION_TYPE": "U", "NORAD_CAT_ID": 35434, "ELEMENT_SET_NO": 999, "REV_AT_EPOCH": 86035, "BSTAR": 0.0011045236, "MEAN_MOTION_DOT": 2.7e-05, "MEAN_MOTION_DDOT": 0}, "tle": {"line1": "1 35434U 93036AKC 25340.94899415  .00002700  00000+0  11045-2 0  9994", "line2": "2 35434  74.0405 224.0762 0087594 296.0242  63.1904 14.25661537860357"}}, "geometry": {"type": "Point", "coordinates": [-98.67628999036856, 65.0242545491343]}}, {"type": "Feature", "properties": {"norad_id": 35435, "name": "COSMOS 2251 DEB", "group": "cosmos-2251-debris", "lat": -42.66571407446792, "lon": 99.42011260049938, "alt_km": 643.0406982310551, "timestamp": "2025-12-07T07:31:36.694040+00:00", "meta": {"OBJECT_NAME": "COSMOS 2251 DEB", "OBJECT_ID": "1993-036AKD", "EPOCH": "2025-12-06T15:33:19.570752", "MEAN_MOTION": 14.78155636, "ECCENTRICITY": 0.00089158, "INCLINATION": 74.011, "RA_OF_ASC_NODE": 116.0521, "ARG_OF_PERICENTER": 210.6381, "MEAN_ANOMALY": 164.7127, "EPHEMERIS_TYPE": 0, "CLASSIFICATION_TYPE": "U", "NORAD_CAT_ID": 35435, "ELEMENT_SET_NO": 999, "REV_AT_EPOCH": 87449, "BSTAR": 0.0041982547, "MEAN_MOTION_DOT": 0.00030535, "MEAN_MOTION_DDOT": 0}, "tle": {"line1": "1 35435U 93036AKD 25340.64814318  .00030535  00000+0  41983-2 0  9992", "line2": "2 35435  74.0110 116.0521 0008915 210.6381 164.7127 14.78155636874491"}}, "geometry": {"type": "Point", "coordinates": [99.42011260049938, -42.66571407446792]}}, {"type": "Feature", "properties": {"norad_id": 35439, "name": "COSMOS 2251 DEB", "group": "cosmos-2251-debris", "lat": 60.9181038243851, "lon": -66.97312414146342, "alt_km": 1078.0911710274486, "timestamp": "2025-12-07T07:31:36.694056+00:00", "meta": {"OBJECT_NAME": "COSMOS 2251 DEB", "OBJECT_ID": "1993-036AKH", "EPOCH": "2025-12-06T05:59:35.063232", "MEAN_MOTION": 13.92766526, "ECCENTRICITY": 0.02419007, "INCLINATION": 74.0202, "RA_OF_ASC_NODE": 145.8594, "ARG_OF_PERICENTER": 316.5639, "MEAN_ANOMALY": 224.7042, "EPHEMERIS_TYPE": 0, "CLASSIFICATION_TYPE": "U", "NORAD_CAT_ID": 35439, "ELEMENT_SET_NO": 999, "REV_AT_EPOCH": 83870, "BSTAR": 0.0024796152, "MEAN_MOTION_DOT": 4.056e-05, "MEAN_MOTION_DDOT": 0}, "tle": {"line1": "1 35439U 93036AKH 25340.24971138  .00004056  00000+0  24796-2 0  9998", "line2": "2 35439  74.0202 145.8594 0241900 316.5639 224.7042 13.92766526838700"}}, "geometry": {"type": "Point", "coordinates": [-66.97312414146342, 60.9181038243851]}}, {"type": "Feature", "properties": {"norad_id": 35440, "name": "COSMOS 2251 DEB", "group": "cosmos-2251-debris", "lat": 36.38766101392819, "lon": 25.945119102886427, "alt_km": 700.0597274863958, "timestamp": "2025-12-07T07:31:36.694066+00:00", "meta": {"OBJECT_NAME": "COSMOS 2251 DEB", "OBJECT_ID": "1993-036AKJ", "EPOCH": "2025-12-06T22:42:44.249472", "MEAN_MOTION": 14.68767431, "ECCENTRICITY": 0.00690638, "INCLINATION": 74.015, "RA_OF_ASC_NODE": 218.8517, "ARG_OF_PERICENTER": 1.0906, "MEAN_ANOMALY": 359.0401, "EPHEMERIS_TYPE": 0, "CLASSIFICATION_TYPE": "U", "NORAD_CAT_ID": 35440, "ELEMENT_SET_NO": 999, "REV_AT_EPOCH": 68680, "BSTAR": 0.00081984037, "MEAN_MOTION_DOT": 4.928e-05, "MEAN_MOTION_DDOT": 0}, "tle": {"line1": "1 35440U 93036AKJ 25340.94634548  .00004928  00000+0  81984-3 0  9999", "line2": "2 35440  74.0150 218.8517 0069063   1.0906 359.0401 14.68767431686804"}}, "geometry": {"type": "Point", "coordinates": [25.945119102886427, 36.38766101392819]}}]}